OBJECT_NAME,OBJECT_ID,EPOCH,MEAN_MOTION,ECCENTRICITY,INCLINATION,RA_OF_ASC_NODE,ARG_OF_PERICENTER,MEAN_ANOMALY,EPHEMERIS_TYPE,CLASSIFICATION_TYPE,NORAD_CAT_ID,ELEMENT_SET_NO,REV_AT_EPOCH,BSTAR,MEAN_MOTION_DOT,MEAN_MOTION_DDOT
KUIPER-00533,2026-140P,2026-07-06T16:26:46.656672,15.38123117,.0007829,51.8778,304.3975,295.0091,65.0083,0,U,69605,999,423,.78126E-3,.29531E-3,0
KUIPER-00534,2026-140Q,2026-07-06T14:28:43.036896,15.38631911,.0013834,51.8820,304.6070,234.3584,125.6115,0,U,69606,999,422,.72305E-3,.27814E-3,0
KUIPER-00537,2026-140R,2026-07-06T20:16:44.444640,15.34387039,.0010221,51.8822,303.9668,28.4789,331.6753,0,U,69607,999,425,-.18839E-2,-.63651E-3,0
KUIPER-00538,2026-140S,2026-07-06T18:11:25.292832,15.37585029,.0006306,51.8807,304.1380,311.0513,48.9928,0,U,69608,999,424,.49449E-3,.18185E-3,0
KUIPER-00540,2026-140T,2026-07-06T18:00:02.998944,15.36800257,.0006378,51.8818,304.2672,356.6657,276.9335,0,U,69609,999,364,.15571E-2,.56941E-3,0
KUIPER-00541,2026-140U,2026-07-06T16:27:23.979744,15.38259623,.0007343,51.8820,304.4083,290.3560,69.6638,0,U,69610,999,423,.38467E-3,.14372E-3,0
KUIPER-00542,2026-140V,2026-07-06T16:24:57.311424,15.38241921,.0007852,51.8790,304.3901,270.7968,89.2119,0,U,69611,999,423,.54624E-3,.20584E-3,0
KUIPER-00543,2026-140W,2026-07-06T13:47:09.710880,15.36692712,.0007643,51.8795,305.1467,6.0543,354.0535,0,U,69612,999,421,.42357E-3,.15069E-3,0
KUIPER-00544,2026-140X,2026-07-06T16:30:12.662784,15.38018871,.0006633,51.8775,304.4125,287.4279,72.5982,0,U,69613,999,423,.77983E-3,.29367E-3,0
KUIPER-00546,2026-140Y,2026-07-06T12:56:57.018048,15.38770315,.0014919,51.8789,304.9265,233.7941,126.1668,0,U,69614,999,421,.62162E-3,.23965E-3,0
KUIPER-00547,2026-140Z,2026-07-06T16:19:40.663200,15.37733363,.001103,51.8823,304.3720,255.9184,104.0577,0,U,69615,999,423,.58862E-3,.21867E-3,0
KUIPER-00549,2026-140AA,2026-07-06T15:11:10.879584,15.37258523,.0007203,51.8799,304.7931,346.1785,13.9004,0,U,69616,999,422,.50599E-3,.18423E-3,0
KUIPER-00550,2026-140AB,2026-07-06T18:00:02.998944,15.33383484,.0007424,51.8806,304.4937,21.6683,136.8199,0,U,69617,999,348,-.14301E-2,-.46963E-3,0
KUIPER-00551,2026-140AC,2026-07-06T16:11:24.143136,15.38087756,.0012539,51.8790,304.3306,247.9373,112.0283,0,U,69618,999,423,.57942E-3,.21784E-3,0
KUIPER-00554,2026-140AD,2026-07-06T19:24:41.806080,15.37858683,.0011363,51.8784,303.7282,257.6853,102.2862,0,U,69619,999,425,.54519E-3,.20306E-3,0
KUIPER-00555,2026-140AE,2026-07-06T19:21:04.258656,15.37981513,.0011558,51.8815,303.7183,249.5817,110.3929,0,U,69620,999,425,.56802E-3,.21263E-3,0
KUIPER-00556,2026-140AF,2026-07-06T16:14:50.076672,15.38175703,.0012252,51.8808,304.3479,235.8141,124.1685,0,U,69621,999,423,.55872E-3,.21048E-3,0
KUIPER-00557,2026-140AG,2026-07-06T16:22:42.492864,15.37400724,.000981,51.8810,304.3847,264.3826,95.6042,0,U,69622,999,423,.54081E-3,.19827E-3,0
KUIPER-00560,2026-140AH,2026-07-06T16:18:12.156768,15.38755142,.0008831,51.8789,304.3582,270.2940,89.7036,0,U,69623,999,423,.57941E-3,.22242E-3,0
KUIPER-00561,2026-140AJ,2026-07-06T16:21:13.088736,15.38558687,.0008039,51.8820,304.3810,273.5809,86.4259,0,U,69624,999,423,.53174E-3,.20238E-3,0
KUIPER-00564,2026-140AK,2026-07-06T19:23:28.334112,15.37424079,.0009463,51.8804,303.7270,263.9488,96.0421,0,U,69625,999,425,-.10414E-1,-.37095E-2,0
KUIPER-00567,2026-140AL,2026-07-06T16:11:42.790848,15.38333443,.0012953,51.8776,304.3294,236.2840,123.6913,0,U,69626,999,423,.56576E-3,.21436E-3,0
KUIPER-00573,2026-140AM,2026-07-06T16:27:25.259328,15.37282699,.0009379,51.8786,304.4008,251.6841,108.3126,0,U,69627,999,423,.42838E-3,.15551E-3,0
CENTISPACE-1 GROUP 05 OBJECT J,2026-138J,2026-07-06T13:21:14.789952,14.15845194,.00089451,55.1387,209.6022,325.0239,35.0147,0,U,69636,999,273,-.1383174E-3,-.427E-5,0
VICTUS HAZE PUMA,2026-142A,2026-07-06T19:45:43.500096,15.20804641,.0025296,97.4477,85.2238,296.9909,62.8744,0,U,69646,999,265,.18306E-4,.335E-5,0
